FENGYUN 1C DEB          
1 36186U 99025DTK 17345.38095000  .00001297  00000-0  63271-3 0  9995
2 36186  99.0283  46.6463 0060917 202.1782 220.9324 14.18918191464370
